ONEWEB-0533             
1 55141U 23004B   24061.76416174 -.00000238  00000+0 -69679-3 0  9998
2 55141  87.9046 157.2907 0002031 106.1462 253.9890 13.12445052 58218
ONEWEB-0541             
1 55142U 23004C   24061.90287833 -.00000457  00000+0 -13257-2 0  9996
2 55142  87.9024 187.5130 0001755 110.2539 249.8778 13.11413871 56201
ONEWEB-0543             
1 55143U 23004D   24061.71529717  .00000058  00000+0  11327-3 0  9998
2 55143  87.9218 142.2413 0002031  93.3878 266.7487 13.18686830 59329
ONEWEB-0544             
1 55144U 23004E   24061.78485430  .00000039  00000+0  65300-4 0  9999
2 55144  87.9218 142.2110 0001745 104.9274 255.2052 13.18686644 59339
ONEWEB-0560             
1 55145U 23004F   24061.77852870  .00000021  00000+0  20473-4 0  9998
2 55145  87.9227 142.1571 0001672  91.6750 268.4573 13.18686379 59340
ONEWEB-0567             
1 55147U 23004H   24061.76587721  .00000773  00000+0  19287-2 0  9992
2 55147  87.9224 142.1955 0001389  96.0257 264.1034 13.18692724 59336
ONEWEB-0569             
1 55148U 23004J   24061.73922533 -.00000519  00000+0 -14567-2 0  9990
2 55148  87.8967 126.9099 0001055  69.8125 290.3117 13.13469587 60240
